CCSDS_OMM_VERS = 2.0
CREATION_DATE  = 
ORIGINATOR     = 

OBJECT_NAME    = STARLINK-36906
OBJECT_ID      = 2026-040X
CENTER_NAME    = EARTH
REF_FRAME      = TEME
TIME_SYSTEM    = UTC
MEAN_ELEMENT_THEORY = SGP/SGP4

EPOCH          = 2026-03-24T09:44:50.170272
MEAN_MOTION    = 15.75253966
ECCENTRICITY   = .0002329
INCLINATION    = 97.2837
RA_OF_ASC_NODE = 32.6085
ARG_OF_PERICENTER = 150.0203
MEAN_ANOMALY   = 210.1196

EPHEMERIS_TYPE = 0
CLASSIFICATION_TYPE = U
NORAD_CAT_ID   = 68036
ELEMENT_SET_NO = 999
REV_AT_EPOCH   = 367
BSTAR          = .1661E-2
MEAN_MOTION_DOT = .2559E-2
MEAN_MOTION_DDOT = 0

CCSDS_OMM_VERS = 2.0
CREATION_DATE  = 
ORIGINATOR     = 

OBJECT_NAME    = STARLINK-36388
OBJECT_ID      = 2026-040Y
CENTER_NAME    = EARTH
REF_FRAME      = TEME
TIME_SYSTEM    = UTC
MEAN_ELEMENT_THEORY = SGP/SGP4

EPOCH          = 2026-03-24T09:42:48.352320
MEAN_MOTION    = 15.75246291
ECCENTRICITY   = .0001504
INCLINATION    = 97.2849
RA_OF_ASC_NODE = 32.6101
ARG_OF_PERICENTER = 129.6818
MEAN_ANOMALY   = 230.4580

EPHEMERIS_TYPE = 0
CLASSIFICATION_TYPE = U
NORAD_CAT_ID   = 68037
ELEMENT_SET_NO = 999
REV_AT_EPOCH   = 367
BSTAR          = .16078E-2
MEAN_MOTION_DOT = .247363E-2
MEAN_MOTION_DDOT = 0

CCSDS_OMM_VERS = 2.0
CREATION_DATE  = 
ORIGINATOR     = 

OBJECT_NAME    = STARLINK-36895
OBJECT_ID      = 2026-040Z
CENTER_NAME    = EARTH
REF_FRAME      = TEME
TIME_SYSTEM    = UTC
MEAN_ELEMENT_THEORY = SGP/SGP4

EPOCH          = 2026-03-24T09:45:51.615360
MEAN_MOTION    = 15.75238414
ECCENTRICITY   = .0002042
INCLINATION    = 97.2855
RA_OF_ASC_NODE = 32.6046
ARG_OF_PERICENTER = 125.3135
MEAN_ANOMALY   = 234.8321

EPHEMERIS_TYPE = 0
CLASSIFICATION_TYPE = U
NORAD_CAT_ID   = 68038
ELEMENT_SET_NO = 999
REV_AT_EPOCH   = 367
BSTAR          = .13909E-2
MEAN_MOTION_DOT = .213041E-2
MEAN_MOTION_DDOT = 0

CCSDS_OMM_VERS = 2.0
CREATION_DATE  = 
ORIGINATOR     = 

OBJECT_NAME    = STARLINK-36373
OBJECT_ID      = 2026-040AA
CENTER_NAME    = EARTH
REF_FRAME      = TEME
TIME_SYSTEM    = UTC
MEAN_ELEMENT_THEORY = SGP/SGP4

EPOCH          = 2026-03-24T09:46:52.097952
MEAN_MOTION    = 15.75237303
ECCENTRICITY   = .0001721
INCLINATION    = 97.2847
RA_OF_ASC_NODE = 32.6037
ARG_OF_PERICENTER = 137.2996
MEAN_ANOMALY   = 222.8403

EPHEMERIS_TYPE = 0
CLASSIFICATION_TYPE = U
NORAD_CAT_ID   = 68039
ELEMENT_SET_NO = 999
REV_AT_EPOCH   = 367
BSTAR          = .17582E-2
MEAN_MOTION_DOT = .27117E-2
MEAN_MOTION_DDOT = 0

CCSDS_OMM_VERS = 2.0
CREATION_DATE  = 
ORIGINATOR     = 

OBJECT_NAME    = STARLINK-36711
OBJECT_ID      = 2026-041A
CENTER_NAME    = EARTH
REF_FRAME      = TEME
TIME_SYSTEM    = UTC
MEAN_ELEMENT_THEORY = SGP/SGP4

EPOCH          = 2026-03-24T05:39:03.990240
MEAN_MOTION    = 15.75349394
ECCENTRICITY   = .0001183
INCLINATION    = 53.1580
RA_OF_ASC_NODE = 349.6382
ARG_OF_PERICENTER = 154.4099
MEAN_ANOMALY   = 205.6980

EPHEMERIS_TYPE = 0
CLASSIFICATION_TYPE = U
NORAD_CAT_ID   = 68040
ELEMENT_SET_NO = 999
REV_AT_EPOCH   = 351
BSTAR          = .17374E-2
MEAN_MOTION_DOT = .275881E-2
MEAN_MOTION_DDOT = 0

CCSDS_OMM_VERS = 2.0
CREATION_DATE  = 
ORIGINATOR     = 

OBJECT_NAME    = STARLINK-36825
OBJECT_ID      = 2026-041B
CENTER_NAME    = EARTH
REF_FRAME      = TEME
TIME_SYSTEM    = UTC
MEAN_ELEMENT_THEORY = SGP/SGP4

EPOCH          = 2026-03-24T10:52:29.609472
MEAN_MOTION    = 15.81021684
ECCENTRICITY   = .0000748
INCLINATION    = 53.1586
RA_OF_ASC_NODE = 348.1355
ARG_OF_PERICENTER = 23.1392
MEAN_ANOMALY   = 336.9664

EPHEMERIS_TYPE = 0
CLASSIFICATION_TYPE = U
NORAD_CAT_ID   = 68041
ELEMENT_SET_NO = 999
REV_AT_EPOCH   = 355
BSTAR          = .1848E-2
MEAN_MOTION_DOT = .383324E-2
MEAN_MOTION_DDOT = 0

CCSDS_OMM_VERS = 2.0
CREATION_DATE  = 
ORIGINATOR     = 

OBJECT_NAME    = STARLINK-36925
OBJECT_ID      = 2026-041C
CENTER_NAME    = EARTH
REF_FRAME      = TEME
TIME_SYSTEM    = UTC
MEAN_ELEMENT_THEORY = SGP/SGP4

EPOCH          = 2026-03-24T05:39:32.935104
MEAN_MOTION    = 15.75384276
ECCENTRICITY   = .0001149
INCLINATION    = 53.1579
RA_OF_ASC_NODE = 349.6401
ARG_OF_PERICENTER = 145.0155
MEAN_ANOMALY   = 215.0941

EPHEMERIS_TYPE = 0
CLASSIFICATION_TYPE = U
NORAD_CAT_ID   = 68042
ELEMENT_SET_NO = 999
REV_AT_EPOCH   = 351
BSTAR          = .21528E-2
MEAN_MOTION_DOT = .345382E-2
MEAN_MOTION_DDOT = 0

CCSDS_OMM_VERS = 2.0
CREATION_DATE  = 
ORIGINATOR     = 

OBJECT_NAME    = STARLINK-36902
OBJECT_ID      = 2026-041D
CENTER_NAME    = EARTH
REF_FRAME      = TEME
TIME_SYSTEM    = UTC
MEAN_ELEMENT_THEORY = SGP/SGP4

EPOCH          = 2026-03-24T10:51:25.468704
MEAN_MOTION    = 15.81068696
ECCENTRICITY   = .0001519
INCLINATION    = 53.1586
RA_OF_ASC_NODE = 348.1320
ARG_OF_PERICENTER = 54.8221
MEAN_ANOMALY   = 305.2943

EPHEMERIS_TYPE = 0
CLASSIFICATION_TYPE = U
NORAD_CAT_ID   = 68043
ELEMENT_SET_NO = 999
REV_AT_EPOCH   = 355
BSTAR          = .1655E-2
MEAN_MOTION_DOT = .342299E-2
MEAN_MOTION_DDOT = 0

CCSDS_OMM_VERS = 2.0
CREATION_DATE  = 
ORIGINATOR     = 

OBJECT_NAME    = STARLINK-36966
OBJECT_ID      = 2026-041E
CENTER_NAME    = EARTH
REF_FRAME      = TEME
TIME_SYSTEM    = UTC
MEAN_ELEMENT_THEORY = SGP/SGP4

EPOCH          = 2026-03-24T12:00:01.999296
MEAN_MOTION    = 15.75207142
ECCENTRICITY   = .0001035
INCLINATION    = 53.1589
RA_OF_ASC_NODE = 348.2741
ARG_OF_PERICENTER = 133.0655
MEAN_ANOMALY   = 312.0817

EPHEMERIS_TYPE = 0
CLASSIFICATION_TYPE = U
NORAD_CAT_ID   = 68044
ELEMENT_SET_NO = 999
REV_AT_EPOCH   = 475
BSTAR          = .13583E-3
MEAN_MOTION_DOT = .20202E-3
MEAN_MOTION_DDOT = 0

CCSDS_OMM_VERS = 2.0
CREATION_DATE  = 
ORIGINATOR     = 

OBJECT_NAME    = STARLINK-36864
OBJECT_ID      = 2026-041F
CENTER_NAME    = EARTH
REF_FRAME      = TEME
TIME_SYSTEM    = UTC
MEAN_ELEMENT_THEORY = SGP/SGP4

EPOCH          = 2026-03-24T13:09:20.337120
MEAN_MOTION    = 15.75432125
ECCENTRICITY   = .0001745
INCLINATION    = 53.1588
RA_OF_ASC_NODE = 348.0319
ARG_OF_PERICENTER = 155.7170
MEAN_ANOMALY   = 204.3933

EPHEMERIS_TYPE = 0
CLASSIFICATION_TYPE = U
NORAD_CAT_ID   = 68045
ELEMENT_SET_NO = 999
REV_AT_EPOCH   = 356
BSTAR          = .1714E-2
MEAN_MOTION_DOT = .273039E-2
MEAN_MOTION_DDOT = 0

CCSDS_OMM_VERS = 2.0
CREATION_DATE  = 
ORIGINATOR     = 

OBJECT_NAME    = STARLINK-36321
OBJECT_ID      = 2026-041G
CENTER_NAME    = EARTH
REF_FRAME      = TEME
TIME_SYSTEM    = UTC
MEAN_ELEMENT_THEORY = SGP/SGP4

EPOCH          = 2026-03-24T12:00:01.999296
MEAN_MOTION    = 15.75209699
ECCENTRICITY   = .0001053
INCLINATION    = 53.1587
RA_OF_ASC_NODE = 347.9541
ARG_OF_PERICENTER = 110.1953
MEAN_ANOMALY   = 131.3449

EPHEMERIS_TYPE = 0
CLASSIFICATION_TYPE = U
NORAD_CAT_ID   = 68046
ELEMENT_SET_NO = 999
REV_AT_EPOCH   = 475
BSTAR          = -.21743E-3
MEAN_MOTION_DOT = -.33792E-3
MEAN_MOTION_DDOT = 0

CCSDS_OMM_VERS = 2.0
CREATION_DATE  = 
ORIGINATOR     = 

OBJECT_NAME    = STARLINK-36181
OBJECT_ID      = 2026-041H
CENTER_NAME    = EARTH
REF_FRAME      = TEME
TIME_SYSTEM    = UTC
MEAN_ELEMENT_THEORY = SGP/SGP4

EPOCH          = 2026-03-24T04:44:03.142176
MEAN_MOTION    = 15.81054837
ECCENTRICITY   = .00004953
INCLINATION    = 53.1584
RA_OF_ASC_NODE = 349.3837
ARG_OF_PERICENTER = 70.9586
MEAN_ANOMALY   = 289.1491

EPHEMERIS_TYPE = 0
CLASSIFICATION_TYPE = U
NORAD_CAT_ID   = 68047
ELEMENT_SET_NO = 999
REV_AT_EPOCH   = 351
BSTAR          = .22170267E-2
MEAN_MOTION_DOT = .465207E-2
MEAN_MOTION_DDOT = 0

