STARLINK-36906          
1 68036U 26040X   26083.40613623  .00255900  00000+0  16610-2 0  9995
2 68036  97.2837  32.6085 0002329 150.0203 210.1196 15.75253966  3677
STARLINK-36388          
1 68037U 26040Y   26083.40472630  .00247363  00000+0  16078-2 0  9999
2 68037  97.2849  32.6101 0001504 129.6818 230.4580 15.75246291  3673
STARLINK-36895          
1 68038U 26040Z   26083.40684740  .00213041  00000+0  13909-2 0  9993
2 68038  97.2855  32.6046 0002042 125.3135 234.8321 15.75238414  3671
STARLINK-36373          
1 68039U 26040AA  26083.40754743  .00271170  00000+0  17582-2 0  9993
2 68039  97.2847  32.6037 0001721 137.2996 222.8403 15.75237303  3677
STARLINK-36711          
1 68040U 26041A   26083.23546285  .00275881  00000+0  17374-2 0  9999
2 68040  53.1580 349.6382 0001183 154.4099 205.6980 15.75349394  3511
STARLINK-36825          
1 68041U 26041B   26083.45312048  .00383324  00000+0  18480-2 0  9993
2 68041  53.1586 348.1355 0000748  23.1392 336.9664 15.81021684  3553
STARLINK-36925          
1 68042U 26041C   26083.23579786  .00345382  00000+0  21528-2 0  9993
2 68042  53.1579 349.6401 0001149 145.0155 215.0941 15.75384276  3514
STARLINK-36902          
1 68043U 26041D   26083.45237811  .00342299  00000+0  16550-2 0  9991
2 68043  53.1586 348.1320 0001519  54.8221 305.2943 15.81068696  3559
STARLINK-36966          
1 68044U 26041E   26083.50002314  .00020202  00000+0  13583-3 0  9997
2 68044  53.1589 348.2741 0001035 133.0655 312.0817 15.75207142  4758
STARLINK-36864          
1 68045U 26041F   26083.54815205  .00273039  00000+0  17140-2 0  9993
2 68045  53.1588 348.0319 0001745 155.7170 204.3933 15.75432125  3569
STARLINK-36321          
1 68046U 26041G   26083.50002314 -.00033792  00000+0 -21743-3 0  9996
2 68046  53.1587 347.9541 0001053 110.1953 131.3449 15.75209699  4751
STARLINK-36181          
1 68047U 26041H   26083.19725859  .00465207  00000+0  22170-2 0  9990
2 68047  53.1584 349.3837 0000495  70.9586 289.1491 15.81054837  3518
